FENGYUN 1C DEB          
1 32170U 99025CTQ 17345.88248527  .00005395  00000-0  54702-3 0  9995
2 32170  99.0995  17.5684 0058955 247.4133 112.0836 14.90139701212789
